COSMOS 2433 (720)       
1 32275U 07052A   24046.74231800 -.00000083  00000+0  00000+0 0  9994
2 32275  65.9766 344.4645 0003735 281.5597  78.4069  2.13103891126893
COSMOS 2432 (719)       
1 32276U 07052B   24047.51501497 -.00000088  00000+0  00000+0 0  9998
2 32276  65.9911 344.5505 0011960 326.4318 212.9145  2.13103222126934
COSMOS 2434 (721)       
1 32393U 07065A   24047.12453272  .00000092  00000+0  00000+0 0  9990
2 32393  64.3265 220.7106 0004944  76.1457 108.8291  2.13103079125617
COSMOS 2436 (723)       
1 32395U 07065C   24047.40970983  .00000092  00000+0  00000+0 0  9996
2 32395  64.3355 220.7643 0017131   9.1700 169.8925  2.13102787125575
COSMOS 2456 (730)       
1 36111U 09070A   24047.66483619 -.00000023  00000+0  00000+0 0  9992
2 36111  64.5573 100.1275 0005263 297.3974  98.7103  2.13098942110320
COSMOS 2457 (733)       
1 36112U 09070B   24046.12657302 -.00000014  00000+0  00000+0 0  9995
2 36112  64.5408 100.0417 0004228 188.1741 239.9278  2.13101101110250
COSMOS 2460 (732)       
1 36402U 10007C   24047.22745163 -.00000087  00000+0  00000+0 0  9994
2 36402  65.8354 343.1358 0002442 334.5883 208.4592  2.13106134108573
COSMOS 2476 (744)       
1 37867U 11064A   24047.77895414 -.00000024  00000+0  00000+0 0  9990
2 37867  64.8336 101.7133 0024280 238.6533 155.7704  2.13101624 95671
COSMOS 2477 (745)       
1 37868U 11064B   24047.12804556 -.00000022  00000+0  00000+0 0  9995
2 37868  64.8404 101.8067 0021479 239.7327 193.1161  2.13101402 95605
COSMOS 2475 (743)       
1 37869U 11064C   24047.59438227 -.00000023  00000+0  00000+0 0  9996
2 37869  64.8479 101.8046 0026372 254.0626 135.1617  2.13101624 95613
COSMOS 2485 (747)       
1 39155U 13019A   24047.20677160 -.00000022  00000+0  00000+0 0  9996
2 39155  64.9922 102.2915 0024539 234.8636 124.9713  2.13101652 84125
COSMOS 2492 (754)       
1 39620U 14012A   24047.16216991 -.00000086  00000+0  00000+0 0  9993
2 39620  65.7177 342.7327 0014894 322.9089  36.9979  2.13103046 77087
COSMOS 2500 (755)       
1 40001U 14032A   24047.34322127 -.00000088  00000+0  00000+0 0  9991
2 40001  65.6556 342.5413 0005372 222.8048 137.1632  2.13106132 75302
COSMOS 2501 (702K)      
1 40315U 14075A   24046.65655749  .00000089  00000+0  00000+0 0  9998
2 40315  63.6292 219.9360 0018261 203.4898 156.4188  2.13101282 71680
COSMOS 2514 (751)       
1 41330U 16008A   24047.10767993 -.00000086  00000+0  00000+0 0  9998
2 41330  65.4514 342.0893 0009387 223.4948 136.4418  2.13102528 62465
COSMOS 2522 (752)       
1 42939U 17055A   24047.41793599  .00000092  00000+0  00000+0 0  9998
2 42939  64.0897 220.9303 0005459 229.3565 130.5909  2.13101854 49822
COSMOS 2527 (756)       
1 43508U 18053A   24047.37683444 -.00000022  00000+0  00000+0 0  9996
2 43508  65.1529 102.4125 0009775 237.7204 122.2499  2.13102397 44126
COSMOS 2529 (757)       
1 43687U 18086A   24047.00674079  .00000091  00000+0  00000+0 0  9999
2 43687  64.3053 221.4242 0006722 263.8300  96.0882  2.13102001 41128
COSMOS 2534 (758)       
1 44299U 19030A   24047.08986061  .00000092  00000+0  00000+0 0  9995
2 44299  64.3781 221.3631 0009302 291.5581 266.3237  2.13101951 36766
COSMOS 2544 (759)       
1 44850U 19088A   24047.32074279 -.00000022  00000+0  00000+0 0  9991
2 44850  65.1392 102.2539 0014908 257.6556 102.2426  2.13102112 32565
COSMOS 2545 (760)       
1 45358U 20018A   24045.17132218 -.00000075  00000+0  00000+0 0  9997
2 45358  64.7925 342.2672 0009715 259.7621 100.1406  2.13102432 30463
COSMOS 2547 (705K)      
1 46805U 20075A   24043.95166864  .00000073  00000+0  00000+0 0  9993
2 46805  64.6062 221.0737 0005425 234.2420 125.6987  2.13102916 25688
COSMOS 2557 (706K)      
1 52984U 22075A   24046.93100928 -.00000086  00000+0  00000+0 0  9995
2 52984  64.7141 344.3482 0013242 286.2401  73.6229  2.13101681 12551
COSMOS 2559 (707K)      
1 54031U 22130A   24047.34278377 -.00000089  00000+0  00000+0 0  9995
2 54031  64.6855 344.4556 0006093 238.9276 121.0206  2.13101048 10536
COSMOS 2564 (761)       
1 54377U 22161A   24047.53479308  .00000093  00000+0  00000+0 0  9994
2 54377  64.7473 221.0361 0007446 206.2262 153.7316  2.13102078  9486
COSMOS 2569 (703K)      
1 57517U 23114A   24047.55306187 -.00000023  00000+0  00000+0 0  9992
2 57517  64.8644 101.4396 0012087 292.1276  67.8090  2.13104165  4119
